HAWK-7C                 
1 56200U 23054Y   26068.68891713  .00007947  00000+0  30980-3 0  9991
2 56200  97.2829 317.5849 0003651  52.2090 307.9479 15.26207266161848
STARLINK-36454          
1 67470U 26008AB  26068.42370959  .00028167  00000+0  10285-2 0  9992
2 67470  43.0057 206.5280 0005220 293.9378  66.0927 15.27592972  9534
