[{"OBJECT_NAME":"HAWK-7C","OBJECT_ID":"2023-054Y","EPOCH":"2026-03-09T16:32:02.440032","MEAN_MOTION":15.26207266,"ECCENTRICITY":0.00036507,"INCLINATION":97.2829,"RA_OF_ASC_NODE":317.5849,"ARG_OF_PERICENTER":52.209,"MEAN_ANOMALY":307.9479,"EPHEMERIS_TYPE":0,"CLASSIFICATION_TYPE":"U","NORAD_CAT_ID":56200,"ELEMENT_SET_NO":999,"REV_AT_EPOCH":16184,"BSTAR":0.0003098019,"MEAN_MOTION_DOT":7.947e-5,"MEAN_MOTION_DDOT":0},{"OBJECT_NAME":"STARLINK-36454","OBJECT_ID":"2026-008AB","EPOCH":"2026-03-09T10:10:08.508576","MEAN_MOTION":15.27592972,"ECCENTRICITY":0.00052206,"INCLINATION":43.0057,"RA_OF_ASC_NODE":206.528,"ARG_OF_PERICENTER":293.9378,"MEAN_ANOMALY":66.0927,"EPHEMERIS_TYPE":0,"CLASSIFICATION_TYPE":"U","NORAD_CAT_ID":67470,"ELEMENT_SET_NO":999,"REV_AT_EPOCH":953,"BSTAR":0.001028495,"MEAN_MOTION_DOT":0.00028167,"MEAN_MOTION_DDOT":0}]
